LANDSAT 9               
1 49260U 21088A   24195.60858176  .00000735  00000+0  17335-3 0  9998
2 49260  98.2307 264.8644 0001326  94.3770 265.7580 14.57100361148541
